APRIZESAT 2             
1 28366U 04025A   17290.92331052  .00000041  00000-0  26872-4 0  9994
2 28366  98.3309 200.9655 0108650  43.4386 317.5297 14.36617759697212
SAUDICOMSAT 1           
1 28369U 04025D   17290.83542210  .00000067  00000-0  27449-4 0  9996
2 28369  98.2087 240.1544 0033886   8.6279 351.5492 14.52388436704536
SAUDICOMSAT 2           
1 28370U 04025E   17290.78986354  .00000082  00000-0  34024-4 0  9997
2 28370  98.3128 233.6124 0058694 136.2766 224.3098 14.47331771702170
APRIZESAT 1             
1 28372U 04025G   17290.40433544  .00000033  00000-0  19930-4 0  9991
2 28372  98.2674 235.9122 0047636  76.3547 284.2945 14.49515263703220
NANOSAT-1               
1 28493U 04049B   17291.16188081  .00000126  00000-0  27447-4 0  9993
2 28493  98.1915   1.9344 0003964 346.9411  13.1693 14.73357401689036
SAUDICOMSAT 7           
1 31119U 07012C   17290.55438945  .00000109  00000-0  30751-4 0  9997
2 31119  97.9647 248.9560 0061089  38.1003 322.4495 14.61613818559830
SAUDICOMSAT 6           
1 31121U 07012E   17290.81428752  .00000088  00000-0  27975-4 0  9994
2 31121  98.0296 241.8800 0078009 102.9061 258.0866 14.58413166558608
SAUDICOMSAT 5           
1 31124U 07012H   17290.89173992  .00000111  00000-0  30265-4 0  9991
2 31124  97.9257 253.7104 0051902   3.7501 356.4080 14.63305406560422
SAUDICOMSAT 3           
1 31125U 07012J   17290.87409662  .00000131  00000-0  32998-4 0  9993
2 31125  97.8860 258.4284 0042809 331.0383  28.8445 14.65028664561116
SAUDICOMSAT 4           
1 31127U 07012L   17290.81299410  .00000101  00000-0  29908-4 0  9991
2 31127  97.9966 245.8116 0069464  68.2685 292.5892 14.60124790559306
APRIZESAT 4             
1 35684U 09041D   17290.82203713  .00000126  00000-0  24273-4 0  9996
2 35684  98.1405 234.4609 0048579  63.2284 325.0553 14.79069515443204
APRIZESAT 3             
1 35686U 09041F   17291.01912130  .00000196  00000-0  27906-4 0  9993
2 35686  98.2803 295.7649 0072625 335.5716  24.2063 14.87128833445447
AISSAT 1                
1 36797U 10035C   17290.87940901  .00000252  00000-0  35437-4 0  9993
2 36797  98.0522  46.1051 0010267 321.5774  38.4709 14.85918247393399
